GSAT0101 (PRN E11)      
1 37846U 11060A   20360.17884736 -.00000074  00000-0  00000-0 0  9993
2 37846  56.7428  36.0495 0002993 307.5142  52.5218  1.70475445 57028
GSAT0102 (PRN E12)      
1 37847U 11060B   20360.69007745 -.00000071  00000-0  00000-0 0  9995
2 37847  56.7440  36.0349 0004981 296.1080  63.8463  1.70475589 57031
GSAT0103 (PRN E19)      
1 38857U 12055A   20360.80707113  .00000075  00000-0  00000-0 0  9994
2 38857  55.0121 156.5145 0001420 231.4157 128.5539  1.70473796 51074
GSAT0104 (PRN E20)      
1 38858U 12055B   20360.74148407  .00000075  00000-0  00000-0 0  9993
2 38858  55.0126 156.5159 0000494 166.0098 193.9741  1.70473717 51076
GSAT0202 (PRN E14)      
1 40129U 14050B   20360.47106242 -.00000104  00000-0  00000-0 0  9999
2 40129  50.5667 352.7988 1651005 106.4324 272.3523  1.85520252 43389
GSAT0204 (PRN E22)      
1 40545U 15017B   20360.32753741 -.00000073  00000-0  00000-0 0  9996
2 40545  56.5433  36.1693 0003587 230.3092 129.7226  1.70475346 35774
GSAT0205 (PRN E24)      
1 40889U 15045A   20360.56952984 -.00000030  00000-0  00000+0 0  9996
2 40889  56.0053 276.8376 0005441   3.3521 356.6809  1.70474664 32929
GSAT0206 (PRN E30)      
1 40890U 15045B   20360.20246586 -.00000033  00000-0  00000-0 0  9997
2 40890  56.0049 276.8442 0003854 350.6520   9.3692  1.70474753 32946
GSAT0208 (PRN E08)      
1 41175U 15079B   20360.00922571  .00000075  00000-0  00000-0 0  9999
2 41175  55.0247 156.2350 0001835 344.0046  15.9742  1.70473507 31267
GSAT0211 (PRN E02)      
1 41549U 16030A   20360.13053676 -.00000033  00000-0  00000-0 0  9992
2 41549  56.1481 276.7223 0004794 327.5407  32.4581  1.70474447 28574
GSAT0210 (PRN E01)      
1 41550U 16030B   20359.83682403 -.00000035  00000-0  00000-0 0  9997
2 41550  56.1476 276.7319 0003747 304.8365  55.1560  1.70474457 28563
GSAT0207 (PRN E07)      
1 41859U 16069A   20360.66884344  .00000075  00000-0  00000-0 0  9995
2 41859  54.6855 156.5327 0002011 315.6591  44.3076  1.70473500 25474
GSAT0212 (PRN E03)      
1 41860U 16069B   20359.93571157  .00000075  00000-0  00000-0 0  9990
2 41860  54.6825 156.5515 0002105  10.8995 349.0903  1.70473527 25550
GSAT0214 (PRN E05)      
1 41862U 16069D   20360.44848619  .00000075  00000-0  00000-0 0  9990
2 41862  54.6835 156.5368 0000434 268.7775  91.2012  1.70473614 25556
GSAT0216 (PRN E25)      
1 43056U 17079B   20360.05819388 -.00000033  00000-0  00000-0 0  9992
2 43056  56.1233 276.5647 0004735 294.4114  65.5678  1.70473780 18903
GSAT0217 (PRN E27)      
1 43057U 17079C   20360.27828710 -.00000032  00000-0  00000-0 0  9995
2 43057  56.1215 276.5590 0004618 306.9008  53.0859  1.70473725 18892
GSAT0221 (PRN E15)      
1 43564U 18060A   20360.98370707 -.00000069  00000-0  00000+0 0  9994
2 43564  56.9233  35.8117 0006012 267.5484  92.4485  1.70476290 15095
GSAT0222 (PRN E33)      
1 43565U 18060B   20360.61696725 -.00000071  00000-0  00000-0 0  9990
2 43565  56.9252  35.8213 0005597 272.9398  87.0608  1.70476313 15122
GSAT0219 (PRN E36)      
1 43566U 18060C   20359.66420974 -.00000076  00000-0  00000-0 0  9990
2 43566  56.9252  35.8490 0005345 268.2415  91.7591  1.70476154 15080
GSAT0220 (PRN E13)      
1 43567U 18060D   20360.47068331 -.00000072  00000-0  00000-0 0  9993
2 43567  56.9253  35.8276 0005411 269.5550  90.4472  1.70476324 15085
